FUNCUBE-1 (AO-73)       
1 39444U 13066AE  26068.90648558  .00009564  00000+0  61715-3 0  9993
2 39444  97.8195  38.4486 0037312 178.1154 182.0221 15.07917828664696
STARLINK-5606           
1 55767U 23028AC  26068.92386673  .00000442  00000+0  44872-4 0  9999
2 55767  69.9999 224.0478 0003132 271.2549  88.8251 14.98333014166549
